AALTO-1                 
1 42775U 17036L   18021.41919489  .00000871  00000-0  42965-4 0  9995
2 42775  97.4220  83.2315 0013436 212.6930 147.3475 15.20474732 32194
URSA MAIOR              
1 42776U 17036M   18021.80731944  .00000964  00000-0  47144-4 0  9994
2 42776  97.4223  83.6380 0013333 211.3862 148.6579 15.20539254 32257
COMPASS 2               
1 42777U 17036N   18021.48060983  .00001626  00000-0  75867-4 0  9996
2 42777  97.4239  83.4935 0012259 216.3341 143.7063 15.21218744 32200
LEMUR-2-LYNSEY-SYMO     
1 42779U 17036Q   18021.11722452  .00001832  00000-0  84367-4 0  9998
2 42779  97.4234  83.1941 0011658 224.2978 135.7326 15.21518219 32143
LEMUR-2-LISASAURUS      
1 42780U 17036R   18022.11110964  .00001610  00000-0  74812-4 0  9998
2 42780  97.4227  84.1469 0011607 220.7129 139.3240 15.21389576 32301
LEMUR-2-SAM-AMELIA      
1 42781U 17036S   18021.11156072  .00001712  00000-0  78984-4 0  9995
2 42781  97.4231  83.1915 0011486 224.6891 135.3420 15.21552931 32141
LEMUR-2-MCPEAKE         
1 42782U 17036T   18021.37027269  .00001648  00000-0  76087-4 0  9999
2 42782  97.4233  83.4626 0011344 222.9094 137.1258 15.21583897 32183
DIAMOND RED             
1 42783U 17036U   18021.72573644  .00001109  00000-0  52861-4 0  9998
2 42783  97.4223  83.7394 0011442 224.1874 135.8448 15.21142919 32246
PEGASUS                 
1 42784U 17036V   18021.58385751  .00001323  00000-0  62202-4 0  9991
2 42784  97.4224  83.6270 0011354 224.8844 135.1475 15.21283778 32226
DIAMOND GREEN           
1 42785U 17036W   18021.59332427  .00001111  00000-0  52940-4 0  9998
2 42785  97.4226  83.6173 0011310 225.2604 134.7712 15.21141775 32298
DIAMOND BLUE            
1 42786U 17036X   18021.72387206  .00001098  00000-0  52383-4 0  9994
2 42786  97.4225  83.7470 0011160 225.0605 134.9726 15.21137513 32237
NUDTSAT                 
1 42787U 17036Y   18021.81241057  .00001815  00000-0  83196-4 0  9991
2 42787  97.4227  83.9347 0010981 223.8177 136.2188 15.21697724 32103
SUCHAI                  
1 42788U 17036Z   18020.97190439  .00001383  00000-0  64530-4 0  9996
2 42788  97.4225  83.0681 0010938 227.1373 132.8945 15.21488968 32203
SKCUBE                  
1 42789U 17036AA  18021.23222728  .00001289  00000-0  60378-4 0  9995
2 42789  97.4224  83.3281 0010802 226.0947 133.9398 15.21481583 32162
VZLUSAT-1               
1 42790U 17036AB  18021.60701863  .00001761  00000-0  80742-4 0  9992
2 42790  97.4224  83.7404 0010517 224.8069 135.2318 15.21728237 32223
ROBUSTA-1B              
1 42792U 17036AD  18021.60880468  .00001397  00000-0  64912-4 0  9999
2 42792  97.4221  83.7342 0010363 225.5774 134.4614 15.21617796 32231
CICERO 6                
1 42793U 17036AE  18021.72600016  .00000886  00000-0  42319-4 0  9991
2 42793  97.4217  83.8769 0009434 225.7649 134.2813 15.21598348 32321
D-SAT                   
1 42794U 17036AF  18021.59053728  .00000295  00000-0  31138-4 0  9990
2 42794  97.6139  81.6215 0128396  50.4069 310.8404 14.90766275 31886
TOKI                    
1 42820U 98067MU  18022.16461389  .00018114  00000-0  20886-3 0  9999
2 42820  51.6378  20.5637 0003045 353.6373   6.4582 15.62008447 30996
GHANASAT-1              
1 42821U 98067MV  18021.41360539  .00015812  00000-0  18515-3 0  9990
2 42821  51.6377  24.5481 0003062 353.2544   6.8408 15.61721907 30872
MAZAALAI (NUMSAT-1)     
1 42822U 98067MW  18022.17813623  .00017987  00000-0  20874-3 0  9998
2 42822  51.6378  20.6559 0003121 359.1272   0.9715 15.61845243 30973
BRAC ONNESHA            
1 42823U 98067MX  18021.41183465  .00016512  00000-0  19216-3 0  9990
2 42823  51.6385  24.5468 0006129   6.0665 354.0402 15.61832206 30879
NIGERIAEDUSAT-1         
1 42824U 98067MY  18022.18978087  .00018770  00000-0  21825-3 0  9995
2 42824  51.6391  20.7494 0006048   9.9210 350.1902 15.61750143 30963
LEMUR-2-GREENBERG       
1 42837U 17042N   18021.31560645  .00000495  00000-0  55074-4 0  9993
2 42837  97.6082 289.2335 0012671 332.8970  27.1586 14.91298471 28464
LEMUR-2-ANDIS           
1 42838U 17042P   18021.51423583  .00000517  00000-0  57266-4 0  9995
2 42838  97.6081 289.4304 0012758 332.0101  28.0430 14.91320792 28499
LEMUR-2-MONSON          
1 42839U 17042Q   18021.43899609  .00000370  00000-0  42494-4 0  9997
2 42839  97.6081 289.3748 0012428 331.5601  28.4939 14.91329328 28485
LEMUR-2-FURIAUS         
1 42840U 17042R   18021.36285444  .00000673  00000-0  72668-4 0  9999
2 42840  97.6080 289.3199 0012558 332.0842  27.9702 14.91453926 28465
LEMUR-2-PETERG          
1 42841U 17042S   18021.21188199  .00000769  00000-0  82011-4 0  9992
2 42841  97.6082 289.2144 0012167 331.2644  28.7904 14.91585051 28451
LEMUR-2-DEMBITZ         
1 42842U 17042T   18022.21537666  .00000786  00000-0  83620-4 0  9997
2 42842  97.6079 290.1855 0012119 328.2589  31.7898 14.91606896 28603
LEMUR-2-ZACHARY         
1 42845U 17042W   18021.78626631  .00000489  00000-0  53773-4 0  9998
2 42845  97.6030 289.7067 0012626 334.4539  25.6055 14.91803397 28533
FLOCK 2K-03             
1 42850U 17042AB  18021.48393696  .00008148  00000-0  23853-3 0  9998
2 42850  96.9929 285.4513 0009373 289.5904  70.4328 15.35435450 29114
FLOCK 2K-04             
1 42851U 17042AC  18021.48710950  .00008376  00000-0  24521-3 0  9991
2 42851  96.9933 285.4538 0009225 292.5216  67.5051 15.35428340 29113
FLOCK 2K-01             
1 42852U 17042AD  18021.48555289  .00008279  00000-0  24242-3 0  9996
2 42852  96.9929 285.4498 0009034 290.7198  69.3078 15.35425710 29118
FLOCK 2K-02             
1 42853U 17042AE  18021.79410584  .00001860  00000-0  59702-4 0  9998
2 42853  96.9944 285.5115 0010099 289.5681  70.4471 15.33447520 29143
FLOCK 2K-47             
1 42854U 17042AF  18022.19904003  .00009605  00000-0  28062-3 0  9997
2 42854  96.9926 286.1325 0008774 284.6767  75.3505 15.35456112 29222
FLOCK 2K-48             
1 42855U 17042AG  18022.19770322  .00003956  00000-0  11698-3 0  9993
2 42855  96.9929 286.1410 0008742 285.7356  74.2924 15.35436950 29223
FLOCK 2K-45             
1 42856U 17042AH  18021.47904346  .00008420  00000-0  24647-3 0  9998
2 42856  96.9928 285.4573 0008772 287.0824  72.9459 15.35432875 29111
FLOCK 2K-24             
1 42857U 17042AJ  18021.80985974  .00001631  00000-0  50055-4 0  9992
2 42857  96.9935 285.7613 0009149 282.4293  77.5927 15.35070280 29160
FLOCK 2K-46             
1 42858U 17042AK  18022.19443815  .00008928  00000-0  26113-3 0  9992
2 42858  96.9932 286.1505 0008792 284.2230  75.8038 15.35441125 29228
FLOCK 2K-23             
1 42859U 17042AL  18022.19268447  .00009218  00000-0  26954-3 0  9995
2 42859  96.9931 286.1490 0008824 285.5134  74.5136 15.35440837 29228
FLOCK 2K-21             
1 42860U 17042AM  18021.66990026  .00008873  00000-0  25950-3 0  9994
2 42860  96.9930 285.6546 0008878 287.3789  72.6484 15.35443118 29141
FLOCK 2K-22             
1 42861U 17042AN  18021.48934697  .00008421  00000-0  24633-3 0  9993
2 42861  96.9937 285.4578 0008982 286.6427  73.3831 15.35452851 29114
FLOCK 2K-07             
1 42862U 17042AP  18021.53764499  .00008544  00000-0  25006-3 0  9992
2 42862  96.9935 285.5378 0009187 288.4649  71.5597 15.35430431 29137
FLOCK 2K-08             
1 42863U 17042AQ  18021.53472263  .00008357  00000-0  24457-3 0  9999
2 42863  96.9932 285.5332 0009259 289.3942  70.6301 15.35437044 29120
FLOCK 2K-05             
1 42864U 17042AR  18021.53622295  .00008268  00000-0  24205-3 0  9994
2 42864  96.9936 285.5390 0009182 287.8989  72.1254 15.35431702 29127
FLOCK 2K-40             
1 42865U 17042AS  18021.33754909  .00008600  00000-0  25162-3 0  9994
2 42865  96.9936 285.3579 0009299 289.9428  70.0815 15.35435307 29096
FLOCK 2K-39             
1 42866U 17042AT  18021.46611428  .00008255  00000-0  24162-3 0  9992
2 42866  96.9932 285.4781 0009373 288.2778  71.7446 15.35434689 29115
FLOCK 2K-37             
1 42867U 17042AU  18021.52965561  .00008462  00000-0  24766-3 0  9990
2 42867  96.9935 285.5450 0009445 287.8609  72.1606 15.35431083 29120
FLOCK 2K-38             
1 42868U 17042AV  18021.52640962  .00008389  00000-0  24547-3 0  9991
2 42868  96.9932 285.5476 0009367 286.4341  73.5874 15.35439686 29126
FLOCK 2K-31             
1 42869U 17042AW  18021.52479671  .00002378  00000-0  71266-4 0  9992
2 42869  96.9933 285.5465 0009487 284.2881  75.7310 15.35381132 29125
FLOCK 2K-32             
1 42870U 17042AX  18021.45796677  .00008519  00000-0  24933-3 0  9995
2 42870  96.9929 285.4866 0009348 285.2607  74.7604 15.35428787 29111
FLOCK 2K-29             
1 42871U 17042AY  18021.19578347  .00009278  00000-0  27133-3 0  9997
2 42871  96.9932 285.2452 0009466 285.5586  74.4613 15.35429338 29070
FLOCK 2K-30             
1 42872U 17042AZ  18021.78047237  .00009395  00000-0  27482-3 0  9999
2 42872  96.9930 285.8013 0009434 284.1590  75.8606 15.35416335 29152
FLOCK 2K-44             
1 42873U 17042BA  18021.77898914  .00009536  00000-0  27855-3 0  9996
2 42873  96.9931 285.8066 0010197 270.9423  89.0653 15.35450510 29161
FLOCK 2K-43             
1 42874U 17042BB  18021.20397628  .00001781  00000-0  56233-4 0  9998
2 42874  96.9943 285.0952 0011012 275.9498  84.0490 15.34027737 29068
FLOCK 2K-41             
1 42875U 17042BC  18021.44484618  .00001866  00000-0  55857-4 0  9996
2 42875  96.9937 285.5042 0010599 275.1969  84.8066 15.35670303 29118
FLOCK 2K-36             
1 42876U 17042BD  18021.78075583  .00001617  00000-0  49591-4 0  9993
2 42876  96.9942 285.8092 0010879 273.7149  86.2851 15.35091357 29167
FLOCK 2K-35             
1 42877U 17042BE  18021.31982794  .00004841  00000-0  14286-3 0  9998
2 42877  96.9935 285.3787 0010580 274.8051  85.1985 15.35375846 29095
FLOCK 2K-34             
1 42878U 17042BF  18021.77505234  .00009053  00000-0  26506-3 0  9997
2 42878  96.9933 285.8084 0010654 274.4006  85.6021 15.35386339 29160
